1 43057U 17079C   21003.07716428  .00000006  00000-0  00000+0 0  9999
2 43057  56.1132 276.3175 0004423 311.2241  48.8049  1.70473555 19041
1 43057U 17079C   21003.07716428  .00000006  00000-0  00000-0 0  9990
2 43057  56.1132 276.3175 0004423 311.2241  48.8049  1.70473555 19041
1 43057U 17079C   21005.42349875 -.00000005  00000-0  00000+0 0  9998
2 43057  56.1124 276.2529 0004413 311.9637  48.0573  1.70473531 19081
1 43057U 17079C   21005.42349875 -.00000005  00000-0  00000-0 0  9999
2 43057  56.1124 276.2529 0004413 311.9637  48.0573  1.70473531 19081
1 43057U 17079C   21006.01008177 -.00000007  00000-0  00000-0 0  9994
2 43057  56.1117 276.2368 0004412 312.0344  47.9842  1.70473527 19093
1 43057U 17079C   21010.11619749 -.00000007  00000-0  00000+0 0  9992
2 43057  56.1085 276.1237 0004331 313.8636  46.1587  1.70473548 19162
1 43057U 17079C   21010.11619749 -.00000007  00000-0  00000-0 0  9993
2 43057  56.1085 276.1237 0004331 313.8636  46.1587  1.70473548 19162
1 43057U 17079C   21011.87597420 -.00000004  00000-0  00000+0 0  9994
2 43057  56.1071 276.0753 0004310 314.2920  45.7401  1.70473595 19192
1 43057U 17079C   21011.87597420 -.00000004  00000-0  00000-0 0  9995
2 43057  56.1071 276.0753 0004310 314.2920  45.7401  1.70473595 19192
1 43057U 17079C   21013.04915909 -.00000005  00000-0  00000-0 0  9993
2 43057  56.1056 276.0430 0004262 315.3213  44.7170  1.70473615 19218
1 43057U 17079C   21013.04916048 -.00000005  00000-0  00000+0 0  9997
2 43057  56.1052 276.0431 0004252 315.5540  44.4845  1.70473601 19210
1 43057U 17079C   21014.22233652 -.00000008  00000-0  00000+0 0  9994
2 43057  56.1057 276.0107 0004261 315.3229  44.7183  1.70473656 19237
1 43057U 17079C   21014.22233652 -.00000008  00000-0  00000-0 0  9995
2 43057  56.1057 276.0107 0004261 315.3229  44.7183  1.70473656 19237
1 43057U 17079C   21015.39551133 -.00000012  00000-0  00000+0 0  9995
2 43057  56.1045 275.9785 0004233 315.8468  44.1951  1.70473696 19256
1 43057U 17079C   21015.39551133 -.00000012  00000-0  00000-0 0  9996
2 43057  56.1045 275.9785 0004233 315.8468  44.1951  1.70473696 19256
1 43057U 17079C   21015.98209636 -.00000014  00000-0  00000-0 0  9991
2 43057  56.1044 275.9623 0004228 315.8712  44.1699  1.70473716 19265
1 43057U 17079C   21017.15526606 -.00000017  00000-0  00000+0 0  9993
2 43057  56.1033 275.9301 0004191 316.3332  43.7058  1.70473760 19284
1 43057U 17079C   21017.15526606 -.00000017  00000-0  00000-0 0  9994
2 43057  56.1033 275.9301 0004191 316.3332  43.7058  1.70473760 19284
1 43057U 17079C   21017.74185043 -.00000017  00000-0  00000-0 0  9995
2 43057  56.1029 275.9140 0004176 316.5278  43.5098  1.70473776 19294
1 43057U 17079C   21019.50160504 -.00000014  00000-0  00000+0 0  9992
2 43057  56.1016 275.8655 0004130 317.0983  42.9358  1.70473814 19328
1 43057U 17079C   21019.50160504 -.00000014  00000-0  00000-0 0  9993
2 43057  56.1016 275.8655 0004130 317.0983  42.9358  1.70473814 19328
1 43057U 17079C   21021.84795286 -.00000001  00000-0  00000+0 0  9999
2 43057  56.0994 275.8010 0004095 317.7964  42.2386  1.70473860 19362
1 43057U 17079C   21021.84795286 -.00000001  00000-0  00000-0 0  9990
2 43057  56.0994 275.8010 0004095 317.7964  42.2386  1.70473860 19362
1 43057U 17079C   21023.02113190  .00000008  00000-0  00000+0 0  9995
2 43057  56.0983 275.7687 0004062 318.2702  41.7688  1.70473868 19388
1 43057U 17079C   21023.02113190  .00000008  00000-0  00000-0 0  9996
2 43057  56.0983 275.7687 0004062 318.2702  41.7688  1.70473868 19388
1 43057U 17079C   21025.36749838  .00000025  00000-0  00000+0 0  9997
2 43057  56.0961 275.7041 0003996 319.5487  40.5029  1.70473854 19423
1 43057U 17079C   21025.36749838  .00000025  00000-0  00000-0 0  9998
2 43057  56.0961 275.7041 0003996 319.5487  40.5029  1.70473854 19423
1 43057U 17079C   21029.47362280  .00000040  00000-0  00000+0 0  9992
2 43057  56.0930 275.5909 0003962 320.0528  40.0113  1.70473777 19496
1 43057U 17079C   21029.47362280  .00000040  00000-0  00000-0 0  9993
2 43057  56.0930 275.5909 0003962 320.0528  40.0113  1.70473777 19496
1 43057U 17079C   21030.06020723  .00000039  00000-0  00000-0 0  9991
2 43057  56.0923 275.5748 0003943 320.4207  39.6425  1.70473765 19505
1 43057U 17079C   21032.40653499  .00000028  00000-0  00000+0 0  9990
2 43057  56.0911 275.5101 0003909 321.2893  38.7630  1.70473723 19543
1 43057U 17079C   21032.99311595  .00000026  00000-0  00000-0 0  9991
2 43057  56.0906 275.4940 0003898 321.5716  38.4773  1.70473718 19551
1 43057U 17079C   21034.75286321  .00000020  00000-0  00000+0 0  9998
2 43057  56.0885 275.4454 0003868 322.3462  37.6951  1.70473709 19583
1 43057U 17079C   21034.75286321  .00000020  00000-0  00000-0 0  9999
2 43057  56.0885 275.4454 0003868 322.3462  37.6951  1.70473709 19583
1 43057U 17079C   21037.09921000  .00000022  00000-0  00000+0 0  9990
2 43057  56.0880 275.3807 0003813 323.1344  36.9076  1.70473723 19628
1 43057U 17079C   21037.09921000  .00000022  00000-0  00000-0 0  9991
2 43057  56.0880 275.3807 0003813 323.1344  36.9076  1.70473723 19628
1 43057U 17079C   21040.03215894  .00000025  00000-0  00000+0 0  9998
2 43057  56.0848 275.2998 0003718 324.4841  35.5684  1.70473792 19673
1 43057U 17079C   21040.03215894  .00000025  00000-0  00000-0 0  9999
2 43057  56.0848 275.2998 0003718 324.4841  35.5684  1.70473792 19673
1 43057U 17079C   21047.65774322  .00000013  00000-0  00000+0 0  9996
2 43057  56.0808 275.0894 0003600 325.4299  34.6022  1.70474029 19805
1 43057U 17079C   21047.65774322  .00000013  00000-0  00000-0 0  9997
2 43057  56.0808 275.0894 0003600 325.4299  34.6022  1.70474029 19805
1 43057U 17079C   21048.24432716  .00000016  00000-0  00000-0 0  9994
2 43057  56.0796 275.0732 0003545 325.9014  34.1302  1.70474058 19819
1 43057U 17079C   21049.41749819  .00000023  00000-0  00000+0 0  9996
2 43057  56.0787 275.0409 0003521 326.1065  33.9250  1.70474067 19834
1 43057U 17079C   21049.41749819  .00000023  00000-0  00000-0 0  9997
2 43057  56.0787 275.0409 0003521 326.1065  33.9250  1.70474067 19834
1 43057U 17079C   21054.11020775  .00000052  00000-0  00000+0 0  9994
2 43057  56.0752 274.9117 0003398 327.3860  32.6598  1.70474013 19919
1 43057U 17079C   21054.11020775  .00000052  00000-0  00000-0 0  9995
2 43057  56.0752 274.9117 0003398 327.3860  32.6598  1.70474013 19919
1 43057U 17079C   21054.69679406  .00000054  00000-0  00000-0 0  9991
2 43057  56.0748 274.8955 0003433 327.3074  32.7393  1.70474009 19920
1 43057U 17079C   21055.86996754  .00000057  00000-0  00000+0 0  9991
2 43057  56.0741 274.8632 0003386 327.8959  32.1519  1.70473982 19944
1 43057U 17079C   21055.86996754  .00000057  00000-0  00000-0 0  9992
2 43057  56.0741 274.8632 0003386 327.8959  32.1519  1.70473982 19944
1 43057U 17079C   21057.04313439  .00000056  00000-0  00000+0 0  9995
2 43057  56.0732 274.8308 0003364 327.8714  32.1737  1.70473955 19963
1 43057U 17079C   21057.04313439  .00000056  00000-0  00000-0 0  9996
2 43057  56.0732 274.8308 0003364 327.8714  32.1737  1.70473955 19963
1 43057U 17079C   21060.56260956  .00000038  00000-0  00000+0 0  9991
2 43057  56.0707 274.7336 0003356 327.4818  32.5397  1.70473900 20022
1 43057U 17079C   21064.08210336  .00000031  00000-0  00000+0 0  9992
2 43057  56.0685 274.6365 0003273 328.0038  32.0055  1.70473920 20081
1 43057U 17079C   21064.08210336  .00000031  00000-0  00000-0 0  9993
2 43057  56.0685 274.6365 0003273 328.0038  32.0055  1.70473920 20081
1 43057U 17079C   21064.66868951  .00000032  00000-0  00000-0 0  9990
2 43057  56.0681 274.6203 0003249 327.8132  32.1967  1.70473929 20096
1 43057U 17079C   21067.01503910  .00000031  00000-0  00000+0 0  9991
2 43057  56.0665 274.5556 0003189 327.8405  32.1741  1.70473981 20137
1 43057U 17079C   21067.01503910  .00000031  00000-0  00000-0 0  9992
2 43057  56.0665 274.5556 0003189 327.8405  32.1741  1.70473981 20137
1 43057U 17079C   21067.60162589  .00000030  00000-0  00000-0 0  9999
2 43057  56.0662 274.5395 0003216 328.5280  31.4872  1.70474000 20146
1 43057U 17079C   21068.77479484  .00000024  00000-0  00000+0 0  9995
2 43057  56.0653 274.5071 0003186 328.4279  31.5863  1.70474045 20162
1 43057U 17079C   21068.77479484  .00000024  00000-0  00000-0 0  9996
2 43057  56.0653 274.5071 0003186 328.4279  31.5863  1.70474045 20162
1 43057U 17079C   21069.94795987  .00000017  00000-0  00000+0 0  9996
2 43057  56.0645 274.4747 0003160 328.4999  31.5107  1.70474073 20187
1 43057U 17079C   21069.94795987  .00000017  00000-0  00000-0 0  9997
2 43057  56.0645 274.4747 0003160 328.4999  31.5107  1.70474073 20187
1 43057U 17079C   21071.70770085  .00000009  00000-0  00000+0 0  9996
2 43057  56.0621 274.4264 0003086 328.2191  31.7824  1.70474132 20212
1 43057U 17079C   21071.70770085  .00000009  00000-0  00000-0 0  9997
2 43057  56.0621 274.4264 0003086 328.2191  31.7824  1.70474132 20212
1 43057U 17079C   21074.05402177  .00000007  00000-0  00000+0 0  9999
2 43057  56.0611 274.3619 0002991 327.9204  32.0685  1.70474193 20259
1 43057U 17079C   21074.05402177  .00000007  00000-0  00000-0 0  9990
2 43057  56.0611 274.3619 0002991 327.9204  32.0685  1.70474193 20259
1 43057U 17079C   21074.64060205  .00000008  00000-0  00000-0 0  9998
2 43057  56.0599 274.3457 0003038 328.1634  31.8230  1.70474210 20261
1 43057U 17079C   21076.98693555  .00000019  00000-0  00000+0 0  9998
2 43057  56.0612 274.2813 0003059 327.9623  32.0200  1.70474266 20306
1 43057U 17079C   21076.98693555  .00000019  00000-0  00000-0 0  9999
2 43057  56.0612 274.2813 0003059 327.9623  32.0200  1.70474266 20306
1 43057U 17079C   21081.67963238  .00000043  00000-0  00000+0 0  9995
2 43057  56.0564 274.1521 0002907 327.1468  32.8469  1.70474065 20387
1 43057U 17079C   21081.67963238  .00000043  00000-0  00000-0 0  9996
2 43057  56.0564 274.1521 0002907 327.1468  32.8469  1.70474065 20387
